{
  "norad_id": 52001,
  "name": "STARLINK-3659",
  "history": [
    {
      "epoch": "2026-03-28T20:07:50.948832Z",
      "apogee_km": 540.532101374959,
      "perigee_km": 538.9418205088177,
      "latitude_deg": 3.0322190684964846e-05,
      "longitude_deg": 164.95225647821744,
      "height_km": 540.5875909189137,
      "semi_major_axis_km": 6917.873960941888,
      "eccentricity": 0.00011494,
      "inclination_deg": 53.2179,
      "raan_deg": 293.168,
      "arg_perigee_deg": 86.7255,
      "mean_anomaly_deg": 273.3869,
      "mean_motion_rev_day": 15.08842103
    }
  ]
}