{"fetched_at":"2026-03-29T16:36:15Z","count":15609,"tles":[{"name":"STARLINK-3659","line1":"1 52001U 22025AX  26087.83878413  .00000778  00000+0  66930-4 0  9993","line2":"2 52001  53.2179 293.1680 0001149  86.7255 273.3869 15.08842103223810","category":"Starlink"}]}